[{"OBJECT_NAME":"STARLINK-35691","OBJECT_ID":"2025-257AA","EPOCH":"2026-03-09T16:31:25.338144","MEAN_MOTION":15.30197794,"ECCENTRICITY":9.608e-5,"INCLINATION":53.1592,"RA_OF_ASC_NODE":216.9977,"ARG_OF_PERICENTER":94.1077,"MEAN_ANOMALY":266.0034,"EPHEMERIS_TYPE":0,"CLASSIFICATION_TYPE":"U","NORAD_CAT_ID":66404,"ELEMENT_SET_NO":999,"REV_AT_EPOCH":1973,"BSTAR":0.0010394497,"MEAN_MOTION_DOT":0.00030551,"MEAN_MOTION_DDOT":0},{"OBJECT_NAME":"OBJECT L","OBJECT_ID":"2024-024L","EPOCH":"2026-03-09T22:36:05.522976","MEAN_MOTION":15.29373491,"ECCENTRICITY":0.00073185,"INCLINATION":97.3169,"RA_OF_ASC_NODE":137.7038,"ARG_OF_PERICENTER":167.6369,"MEAN_ANOMALY":192.5052,"EPHEMERIS_TYPE":0,"CLASSIFICATION_TYPE":"U","NORAD_CAT_ID":58927,"ELEMENT_SET_NO":999,"REV_AT_EPOCH":9318,"BSTAR":0.00043092344,"MEAN_MOTION_DOT":0.00012217,"MEAN_MOTION_DDOT":0}]
